1 44437U 19041A   19223.20985160  .00001115  00000-0  26628-4 0  9991
2 44437  51.6450  88.2760 0005764 242.1270 219.6998 15.51050586  3346